[{"OBJECT_NAME":"METEOR-M 2","OBJECT_ID":"2014-037A","EPOCH":"2026-03-09T23:09:30.537792","MEAN_MOTION":14.21428734,"ECCENTRICITY":0.00053128,"INCLINATION":98.5035,"RA_OF_ASC_NODE":48.2672,"ARG_OF_PERICENTER":336.7967,"MEAN_ANOMALY":23.2971,"EPHEMERIS_TYPE":0,"CLASSIFICATION_TYPE":"U","NORAD_CAT_ID":40069,"ELEMENT_SET_NO":999,"REV_AT_EPOCH":60522,"BSTAR":2.6040138e-5,"MEAN_MOTION_DOT":1.5e-7,"MEAN_MOTION_DDOT":0},{"OBJECT_NAME":"ARIANE 1 DEB","OBJECT_ID":"1986-019FL","EPOCH":"2026-03-09T01:56:06.058752","MEAN_MOTION":14.28982251,"ECCENTRICITY":0.00326692,"INCLINATION":98.344,"RA_OF_ASC_NODE":111.7497,"ARG_OF_PERICENTER":98.1458,"MEAN_ANOMALY":291.7418,"EPHEMERIS_TYPE":0,"CLASSIFICATION_TYPE":"U","NORAD_CAT_ID":35408,"ELEMENT_SET_NO":999,"REV_AT_EPOCH":1086,"BSTAR":0.00024562758,"MEAN_MOTION_DOT":5.84e-6,"MEAN_MOTION_DDOT":0}]
